[{"OBJECT_NAME":"THEA","OBJECT_ID":"2018-099AQ","EPOCH":"2026-03-09T22:33:02.658240","MEAN_MOTION":15.31454284,"ECCENTRICITY":0.00065849,"INCLINATION":97.4542,"RA_OF_ASC_NODE":137.8815,"ARG_OF_PERICENTER":275.4664,"MEAN_ANOMALY":84.5826,"EPHEMERIS_TYPE":0,"CLASSIFICATION_TYPE":"U","NORAD_CAT_ID":43796,"ELEMENT_SET_NO":999,"REV_AT_EPOCH":39748,"BSTAR":0.00074635274,"MEAN_MOTION_DOT":0.00022649,"MEAN_MOTION_DDOT":0},{"OBJECT_NAME":"STARLINK-35127","OBJECT_ID":"2025-210T","EPOCH":"2026-03-09T21:19:15.346848","MEAN_MOTION":15.30210805,"ECCENTRICITY":0.00010617,"INCLINATION":53.1573,"RA_OF_ASC_NODE":306.0042,"ARG_OF_PERICENTER":114.3002,"MEAN_ANOMALY":245.811,"EPHEMERIS_TYPE":0,"CLASSIFICATION_TYPE":"U","NORAD_CAT_ID":65639,"ELEMENT_SET_NO":999,"REV_AT_EPOCH":2776,"BSTAR":0.0008981067,"MEAN_MOTION_DOT":0.00026343,"MEAN_MOTION_DDOT":0}]
